[{"OBJECT_NAME":"TRANSPORTER-15 OBJECT CZ","OBJECT_ID":"2025-276CZ","EPOCH":"2026-03-09T17:32:17.005632","MEAN_MOTION":15.20454432,"ECCENTRICITY":6.906e-5,"INCLINATION":97.4256,"RA_OF_ASC_NODE":144.1611,"ARG_OF_PERICENTER":127.7851,"MEAN_ANOMALY":232.3447,"EPHEMERIS_TYPE":0,"CLASSIFICATION_TYPE":"U","NORAD_CAT_ID":66761,"ELEMENT_SET_NO":999,"REV_AT_EPOCH":1533,"BSTAR":0.0005331226,"MEAN_MOTION_DOT":0.00011576,"MEAN_MOTION_DDOT":0},{"OBJECT_NAME":"IHI-SAT2","OBJECT_ID":"2025-276DL","EPOCH":"2026-03-09T17:30:40.180608","MEAN_MOTION":15.20112566,"ECCENTRICITY":0.00018696,"INCLINATION":97.4302,"RA_OF_ASC_NODE":144.214,"ARG_OF_PERICENTER":154.4631,"MEAN_ANOMALY":205.6697,"EPHEMERIS_TYPE":0,"CLASSIFICATION_TYPE":"U","NORAD_CAT_ID":66772,"ELEMENT_SET_NO":999,"REV_AT_EPOCH":1533,"BSTAR":0.00038428592,"MEAN_MOTION_DOT":8.239e-5,"MEAN_MOTION_DDOT":0}]
