TRANSPORTER-15 OBJECT CZ
1 66761U 25276CZ  26068.73075237  .00011576  00000+0  53312-3 0  9990
2 66761  97.4256 144.1611 0000691 127.7851 232.3447 15.20454432 15333
IHI-SAT2                
1 66772U 25276DL  26068.72963171  .00008239  00000+0  38429-3 0  9998
2 66772  97.4302 144.2140 0001870 154.4631 205.6697 15.20112566 15337
